NORAD_CAT_ID,OBJECT_NAME,OBJECT_TYPE,EPOCH,MEAN_MOTION,ECCENTRICITY,INCLINATION,RA_OF_ASC_NODE,ARG_OF_PERICENTER,MEAN_ANOMALY,BSTAR,MEAN_MOTION_DOT,MEAN_MOTION_DDOT,TLE_LINE0,TLE_LINE1,TLE_LINE2,SEMIMAJOR_AXIS,PERIOD,APOGEE,PERIGEE,DECAYED
52680.0,STARLINK-3774,PAYLOAD,2023-03-07 05:40:52,15.0885855,0.0001322,53.2185,35.2648,85.5066,274.6077,0.0031258,0.00049836,0.0,0 STARLINK-3774,1 52680U 22053AA  23066.23671670  .00049836  00000-0  31258-2 0  9993,2 52680  53.2185  35.2648 0001322  85.5066 274.6077 15.08858550 44919,6917.824,95.436,540.603,538.774,0.0
52680.0,STARLINK-3774,PAYLOAD,2023-03-07 15:13:11,15.08847954,0.00018,53.22,33.483,81.9696,278.15,0.0020862,0.00033077,0.0,0 STARLINK-3774,1 52680U 22053AA  23066.63416024  .00033077  00000-0  20862-2 0  9996,2 52680  53.2200  33.4830 0001800  81.9696 278.1500 15.08847954 44972,6917.856,95.437,540.966,538.476,0.0
52680.0,STARLINK-3774,PAYLOAD,2023-03-07 21:34:43,15.08847648,0.0001876,53.219,32.2897,102.4062,257.714,0.001008,0.00015794,0.0,0 STARLINK-3774,1 52680U 22053AA  23066.89912001  .00015794  00000-0  10080-2 0  9997,2 52680  53.2190  32.2897 0001876 102.4062 257.7140 15.08847648 45423,6917.857,95.437,541.02,538.424,0.0
52680.0,STARLINK-3774,PAYLOAD,2023-03-08 03:56:16,15.08849405,0.0001669,53.2186,31.1015,108.5677,251.5497,0.0011975,0.00018826,0.0,0 STARLINK-3774,1 52680U 22053AA  23067.16407958  .00018826  00000-0  11975-2 0  9991,2 52680  53.2186  31.1015 0001669 108.5677 251.5497 15.08849405 45056,6917.852,95.437,540.871,538.562,0.0
52680.0,STARLINK-3774,PAYLOAD,2023-03-08 15:03:58,15.08855876,0.0001582,53.2193,29.0192,99.8147,260.3024,0.00096905,0.00015175,0.0,0 STARLINK-3774,1 52680U 22053AA  23067.62775914  .00015175  00000-0  96905-3 0  9993,2 52680  53.2193  29.0192 0001582  99.8147 260.3024 15.08855876 45125,6917.832,95.437,540.791,538.602,0.0
52680.0,STARLINK-3774,PAYLOAD,2023-03-08 21:25:31,15.08857352,0.0001906,53.2192,27.8313,105.5785,254.5418,0.0010815,0.00016974,0.0,0 STARLINK-3774,1 52680U 22053AA  23067.89272048  .00016974  00000-0  10815-2 0  9995,2 52680  53.2192  27.8313 0001906 105.5785 254.5418 15.08857352 45570,6917.827,95.436,541.011,538.374,0.0
52680.0,STARLINK-3774,PAYLOAD,2023-03-09 02:11:40,15.08859417,0.0002032,53.2197,26.9378,98.0585,262.0638,0.0010734,0.00016846,0.0,0 STARLINK-3774,1 52680U 22053AA  23068.09144007  .00016846  00000-0  10734-2 0  9999,2 52680  53.2197  26.9378 0002032  98.0585 262.0638 15.08859417 45191,6917.821,95.436,541.092,538.28,0.0
52680.0,STARLINK-3774,PAYLOAD,2023-03-09 21:16:17,15.08850554,0.0001673,53.2189,23.3732,76.1307,283.9871,0.00059785,9.242e-05,0.0,0 STARLINK-3774,1 52680U 22053AA  23068.88631939  .00009242  00000-0  59785-3 0  9993,2 52680  53.2189  23.3732 0001673  76.1307 283.9871 15.08850554 45729,6917.848,95.437,540.87,538.556,0.0
52680.0,STARLINK-3774,PAYLOAD,2023-03-10 03:37:50,15.08867776,0.0001311,53.2208,22.1826,98.1382,261.9759,0.0011786,0.00018533,0.0,0 STARLINK-3774,1 52680U 22053AA  23069.15127337  .00018533  00000-0  11786-2 0  9997,2 52680  53.2208  22.1826 0001311  98.1382 261.9759 15.08867776 45352,6917.795,95.436,540.567,538.754,0.0
52680.0,STARLINK-3774,PAYLOAD,2023-03-10 13:10:08,15.08848779,6.54e-05,53.2206,20.3993,64.3568,295.7492,-0.00024435,-4.175e-05,0.0,0 STARLINK-3774,1 52680U 22053AA  23069.54871180 -.00004175  00000-0 -24435-3 0  9997,2 52680  53.2206  20.3993 0000654  64.3568 295.7492 15.08848779 45413,6917.854,95.437,540.171,539.266,0.0
52680.0,STARLINK-3774,PAYLOAD,2023-03-11 03:28:38,15.08822209,0.0001012,53.2206,17.7245,65.9206,294.1893,-4.5527e-06,-3.6e-06,0.0,0 STARLINK-3774,1 52680U 22053AA  23070.14488688 -.00000360  00000-0 -45527-5 0  9991,2 52680  53.2206  17.7245 0001012  65.9206 294.1893 15.08822209 45506,6917.935,95.439,540.5,539.1,0.0
52680.0,STARLINK-3774,PAYLOAD,2023-03-11 20:57:53,15.08835681,0.0001031,53.2197,14.4504,57.8887,302.2205,0.00047519,7.282e-05,0.0,0 STARLINK-3774,1 52680U 22053AA  23070.87353254  .00007282  00000-0  47519-3 0  9990,2 52680  53.2197  14.4504 0001031  57.8887 302.2205 15.08835681 46027,6917.894,95.438,540.472,539.045,0.0
52680.0,STARLINK-3774,PAYLOAD,2023-03-11 22:33:16,15.08841962,8.2e-05,53.2191,14.1557,66.466,293.6419,0.00068449,0.00010623,0.0,0 STARLINK-3774,1 52680U 22053AA  23070.93976981  .00010623  00000-0  68449-3 0  9993,2 52680  53.2191  14.1557 0000820  66.4660 293.6419 15.08841962 45620,6917.874,95.437,540.307,539.172,0.0
52680.0,STARLINK-3774,PAYLOAD,2023-03-12 06:30:11,15.08882821,8.43e-05,53.2196,12.6713,77.4184,282.6903,0.0017745,0.00028099,0.0,0 STARLINK-3774,1 52680U 22053AA  23071.27096114  .00028099  00000-0  17745-2 0  9990,2 52680  53.2196  12.6713 0000843  77.4184 282.6903 15.08882821 45670,6917.75,95.435,540.198,539.031,0.0
52680.0,STARLINK-3774,PAYLOAD,2023-03-13 04:45:35,15.08856804,0.000146,53.2178,8.5083,73.0156,287.0996,0.0013271,0.00020906,0.0,0 STARLINK-3774,1 52680U 22053AA  23072.19832368  .00020906  00000-0  13271-2 0  9990,2 52680  53.2178   8.5083 0001460  73.0156 287.0996 15.08856804 45810,6917.829,95.436,540.704,538.684,0.0
52680.0,STARLINK-3774,PAYLOAD,2023-03-14 04:36:22,15.08848004,0.0001185,53.217,4.0447,125.0807,235.0296,0.0019731,0.0003126,0.0,0 STARLINK-3774,1 52680U 22053AA  23073.19193250  .00031260  00000-0  19731-2 0  9993,2 52680  53.2170   4.0447 0001185 125.0807 235.0296 15.08848004 45967,6917.856,95.437,540.541,538.901,0.0
52680.0,STARLINK-3774,PAYLOAD,2023-03-14 12:33:18,15.08841824,0.0001345,53.2177,2.5562,105.4647,254.6493,0.0014973,0.00023623,0.0,0 STARLINK-3774,1 52680U 22053AA  23073.52313605  .00023623  00000-0  14973-2 0  9995,2 52680  53.2177   2.5562 0001345 105.4647 254.6493 15.08841824 46013,6917.875,95.437,540.67,538.809,0.0
52680.0,STARLINK-3774,PAYLOAD,2023-03-15 04:27:09,15.08895181,0.0001378,53.2181,359.5827,108.3062,251.808,0.0026206,0.00041729,0.0,0 STARLINK-3774,1 52680U 22053AA  23074.18552354  .00041729  00000-0  26206-2 0  9993,2 52680  53.2181 359.5827 0001378 108.3062 251.8080 15.08895181 46113,6917.712,95.434,540.53,538.623,0.0
52680.0,STARLINK-3774,PAYLOAD,2023-03-16 01:07:10,15.08858123,0.0001475,53.218,355.7177,82.5312,277.5848,0.0021327,0.00033834,0.0,0 STARLINK-3774,1 52680U 22053AA  23075.04665065  .00033834  00000-0  21327-2 0  9990,2 52680  53.2180 355.7177 0001475  82.5312 277.5848 15.08858123 46243,6917.825,95.436,540.71,538.67,0.0
52680.0,STARLINK-3774,PAYLOAD,2023-03-16 05:53:19,15.088692,0.0001316,53.218,354.8256,77.1567,282.9573,0.0022261,0.00035347,0.0,0 STARLINK-3774,1 52680U 22053AA  23075.24536782  .00035347  00000-0  22261-2 0  9994,2 52680  53.2180 354.8256 0001316  77.1567 282.9573 15.08869200 46688,6917.791,95.436,540.567,538.746,0.0
52680.0,STARLINK-3774,PAYLOAD,2023-03-16 18:36:26,15.08818423,0.0001925,53.2183,352.4461,42.484,317.6301,0.0032948,0.00052509,0.0,0 STARLINK-3774,1 52680U 22053AA  23075.77530344  .00052509  00000-0  32948-2 0  9992,2 52680  53.2183 352.4461 0001925  42.4840 317.6301 15.08818423 46358,6917.946,95.439,541.143,538.48,0.0
52680.0,STARLINK-3774,PAYLOAD,2023-03-17 04:08:44,15.08839478,0.0001483,53.2182,350.6619,55.2852,304.828,0.0015084,0.00023799,0.0,0 STARLINK-3774,1 52680U 22053AA  23076.17274134  .00023799  00000-0  15084-2 0  9990,2 52680  53.2182 350.6619 0001483  55.2852 304.8280 15.08839478 46410,6917.882,95.438,540.773,538.721,0.0
52680.0,STARLINK-3774,PAYLOAD,2023-03-17 18:27:13,15.08851046,0.000158,53.2181,347.9856,54.9935,305.1205,0.0010021,0.00015701,0.0,0 STARLINK-3774,1 52680U 22053AA  23076.76890136  .00015701  00000-0  10021-2 0  9991,2 52680  53.2181 347.9856 0001580  54.9935 305.1205 15.08851046 46503,6917.847,95.437,540.805,538.619,0.0
52680.0,STARLINK-3774,PAYLOAD,2023-03-18 10:21:04,15.08856519,0.0002028,53.2173,345.0121,63.9508,296.1693,0.00061066,9.448e-05,0.0,0 STARLINK-3774,1 52680U 22053AA  23077.43129760  .00009448  00000-0  61066-3 0  9991,2 52680  53.2173 345.0121 0002028  63.9508 296.1693 15.08856519 46603,6917.83,95.437,541.098,538.292,0.0
52680.0,STARLINK-3774,PAYLOAD,2023-03-18 21:28:45,15.08853226,0.000131,53.2184,342.9328,74.6697,285.4439,0.00024144,3.558e-05,0.0,0 STARLINK-3774,1 52680U 22053AA  23077.89497293  .00003558  00000-0  24144-3 0  9992,2 52680  53.2184 342.9328 0001310  74.6697 285.4439 15.08853226 47085,6917.84,95.437,540.611,538.799,0.0
52680.0,STARLINK-3774,PAYLOAD,2023-03-19 10:11:50,15.08848479,0.0001285,53.2174,340.5513,81.2994,278.8144,0.00026622,3.952e-05,0.0,0 STARLINK-3774,1 52680U 22053AA  23078.42489074  .00003952  00000-0  26622-3 0  9991,2 52680  53.2174 340.5513 0001285  81.2994 278.8144 15.08848479 46755,6917.854,95.437,540.608,538.831,0.0
52680.0,STARLINK-3774,PAYLOAD,2023-03-19 21:19:32,15.08860401,0.0001323,53.2179,338.4711,89.1411,270.9733,0.00075306,0.00011724,0.0,0 STARLINK-3774,1 52680U 22053AA  23078.88856711  .00011724  00000-0  75306-3 0  9996,2 52680  53.2179 338.4711 0001323  89.1411 270.9733 15.08860401 47230,6917.818,95.436,540.598,538.768,0.0
52680.0,STARLINK-3774,PAYLOAD,2023-03-20 10:02:37,15.08835646,0.0001326,53.2178,336.0927,106.3013,253.8125,1.0972e-05,-1.13e-06,0.0,0 STARLINK-3774,1 52680U 22053AA  23079.41849285 -.00000113  00000-0  10972-4 0  9994,2 52680  53.2178 336.0927 0001326 106.3013 253.8125 15.08835646 46906,6917.894,95.438,540.676,538.841,0.0
52680.0,STARLINK-3774,PAYLOAD,2023-03-21 03:31:52,15.08861521,0.0001388,53.2168,332.8215,106.139,253.9755,0.0011824,0.00018591,0.0,0 STARLINK-3774,1 52680U 22053AA  23080.14713054  .00018591  00000-0  11824-2 0  9993,2 52680  53.2168 332.8215 0001388 106.1390 253.9755 15.08861521 47017,6917.815,95.436,540.64,538.719,0.0
52680.0,STARLINK-3774,PAYLOAD,2023-03-21 22:36:29,15.08844677,0.0001432,53.2162,329.25,117.274,242.8398,0.00076141,0.00011852,0.0,0 STARLINK-3774,1 52680U 22053AA  23080.94201330  .00011852  00000-0  76141-3 0  9997,2 52680  53.2162 329.2500 0001432 117.2740 242.8398 15.08844677 47136,6917.866,95.437,540.722,538.74,0.0
